{
    "links": {
        "self": "http://www.neowsapp.com/rest/v1/neo/3471584?api_key=iIulBulltgU6a56xZRHN4H3l9WmuAYTsLGpBGhQ2"
    },
    "id": "3471584",
    "neo_reference_id": "3471584",
    "name": "(2009 UB)",
    "designation": "2009 UB",
    "nasa_jpl_url": "http://ssd.jpl.nasa.gov/sbdb.cgi?sstr=3471584",
    "absolute_magnitude_h": 25.5,
    "estimated_diameter": {
        "kilometers": {
            "estimated_diameter_min": 0.0211132445,
            "estimated_diameter_max": 0.0472106499
        },
        "meters": {
            "estimated_diameter_min": 21.113244479,
            "estimated_diameter_max": 47.2106498806
        },
        "miles": {
            "estimated_diameter_min": 0.0131191578,
            "estimated_diameter_max": 0.0293353287
        },
        "feet": {
            "estimated_diameter_min": 69.2691770164,
            "estimated_diameter_max": 154.8905885541
        }
    },
    "is_potentially_hazardous_asteroid": false,
    "close_approach_data": [
        {
            "close_approach_date": "2009-10-01",
            "close_approach_date_full": "2009-Oct-01 13:16",
            "epoch_date_close_approach": 1254402960000,
            "relative_velocity": {
                "kilometers_per_second": "7.5873921284",
                "kilometers_per_hour": "27314.6116623862",
                "miles_per_hour": "16972.2374521088"
            },
            "miss_distance": {
                "astronomical": "0.0336675303",
                "lunar": "13.0966692867",
                "kilometers": "5036590.821040461",
                "miles": "3129592.4150659218"
            },
            "orbiting_body": "Earth"
        }
    ],
    "orbital_data": {
        "orbit_id": "7",
        "orbit_determination_date": "2017-04-06 08:59:35",
        "first_observation_date": "2009-10-16",
        "last_observation_date": "2009-10-18",
        "data_arc_in_days": 2,
        "observations_used": 14,
        "orbit_uncertainty": "9",
        "minimum_orbit_intersection": ".0193691",
        "jupiter_tisserand_invariant": "4.857",
        "epoch_osculation": "2455121.5",
        "eccentricity": ".29131971391193",
        "semi_major_axis": "1.337999289294508",
        "inclination": "3.542344317939445",
        "ascending_node_longitude": "21.70412813281256",
        "orbital_period": "565.3042505989314",
        "perihelion_distance": ".9482137191228662",
        "perihelion_argument": "300.1489127309438",
        "aphelion_distance": "1.72778485946615",
        "perihelion_time": "2455067.174268939257",
        "mean_anomaly": "34.59599527360152",
        "mean_motion": ".6368252133582675",
        "equinox": "J2000",
        "orbit_class": {
            "orbit_class_type": "APO",
            "orbit_class_description": "Near-Earth asteroid orbits which cross the Earth’s orbit similar to that of 1862 Apollo",
            "orbit_class_range": "a (semi-major axis) > 1.0 AU; q (perihelion) < 1.017 AU"
        }
    },
    "is_sentry_object": false
}